NORAD_CAT_ID,OBJECT_NAME,OBJECT_TYPE,EPOCH,MEAN_MOTION,ECCENTRICITY,INCLINATION,RA_OF_ASC_NODE,ARG_OF_PERICENTER,MEAN_ANOMALY,BSTAR,MEAN_MOTION_DOT,MEAN_MOTION_DDOT,TLE_LINE0,TLE_LINE1,TLE_LINE2,SEMIMAJOR_AXIS,PERIOD,APOGEE,PERIGEE,DECAYED
53534.0,STARLINK-4488,PAYLOAD,2024-03-25 13:27:21,15.08841085,0.0001614,53.2182,39.699,86.2355,273.8822,-0.00017438,-3.062e-05,0.0,0 STARLINK-4488,1 53534U 22101H   24085.56066855 -.00003062  00000-0 -17438-3 0  9995,2 53534  53.2182  39.6990 0001614  86.2355 273.8822 15.08841085 88367,6917.877,95.437,540.859,538.626,0.0
53534.0,STARLINK-4488,PAYLOAD,2024-03-26 06:56:34,15.0886533,0.0001588,53.2182,36.4261,100.2074,259.9097,0.0006073,9.397e-05,0.0,0 STARLINK-4488,1 53534U 22101H   24086.28929365  .00009397  00000-0  60730-3 0  9997,2 53534  53.2182  36.4261 0001588 100.2074 259.9097 15.08865330 88478,6917.803,95.436,540.767,538.569,0.0
53534.0,STARLINK-4488,PAYLOAD,2024-03-26 13:18:07,15.08855759,0.0001489,53.2176,35.2383,68.842,291.2731,0.00054482,8.397e-05,0.0,0 STARLINK-4488,1 53534U 22101H   24086.55425727  .00008397  00000-0  54482-3 0  9996,2 53534  53.2176  35.2383 0001489  68.8420 291.2731 15.08855759 88510,6917.832,95.437,540.727,538.667,0.0
53534.0,STARLINK-4488,PAYLOAD,2024-03-27 03:36:36,15.08841028,0.0001686,53.2192,32.5683,94.1015,266.017,-3.337e-05,-8.19e-06,0.0,0 STARLINK-4488,1 53534U 22101H   24087.15042303 -.00000819  00000-0 -33370-4 0  9995,2 53534  53.2192  32.5683 0001686  94.1015 266.0170 15.08841028 88603,6917.877,95.437,540.909,538.576,0.0
53534.0,STARLINK-4488,PAYLOAD,2024-03-27 13:08:55,15.08837559,0.0001452,53.2176,30.7822,92.0177,268.0981,-8.9084e-05,-1.705e-05,0.0,0 STARLINK-4488,1 53534U 22101H   24087.54786365 -.00001705  00000-0 -89084-4 0  9999,2 53534  53.2176  30.7822 0001452  92.0177 268.0981 15.08837559 88669,6917.888,95.438,540.757,538.748,0.0
53534.0,STARLINK-4488,PAYLOAD,2024-03-27 19:30:28,15.08833224,0.0001173,53.2182,29.5932,97.0392,263.0733,-2.7763e-05,-7.3e-06,0.0,0 STARLINK-4488,1 53534U 22101H   24087.81282610 -.00000730  00000-0 -27763-4 0  9996,2 53534  53.2182  29.5932 0001173  97.0392 263.0733 15.08833224 88708,6917.901,95.438,540.578,538.955,0.0
53534.0,STARLINK-4488,PAYLOAD,2024-03-28 05:02:46,15.08848368,0.0001371,53.218,27.8031,89.8777,270.2372,2.4119e-05,9.6e-07,0.0,0 STARLINK-4488,1 53534U 22101H   24088.21025938  .00000096  00000-0  24119-4 0  9994,2 53534  53.2180  27.8031 0001371  89.8777 270.2372 15.08848368 88763,6917.855,95.437,540.668,538.771,0.0
53534.0,STARLINK-4488,PAYLOAD,2024-03-28 12:59:42,15.08842057,0.0001633,53.2196,26.3171,90.0989,270.019,-2.7512e-05,-7.26e-06,0.0,0 STARLINK-4488,1 53534U 22101H   24088.54146512 -.00000726  00000-0 -27512-4 0  9994,2 53534  53.2196  26.3171 0001633  90.0989 270.0190 15.08842057 88810,6917.874,95.437,540.869,538.609,0.0
53534.0,STARLINK-4488,PAYLOAD,2024-03-29 04:53:35,15.08809689,0.000111,53.218,23.3491,102.5563,257.5554,-0.00027671,-4.685e-05,0.0,0 STARLINK-4488,1 53534U 22101H   24089.20388536 -.00004685  00000-0 -27671-3 0  9995,2 53534  53.2180  23.3491 0001110 102.5563 257.5554 15.08809689 88911,6917.973,95.439,540.606,539.07,0.0
53534.0,STARLINK-4488,PAYLOAD,2024-03-30 04:44:22,15.08844546,0.000139,53.2203,18.8842,95.5979,264.5172,0.00024186,3.564e-05,0.0,0 STARLINK-4488,1 53534U 22101H   24090.19748131  .00003564  00000-0  24186-3 0  9997,2 53534  53.2203  18.8842 0001390  95.5979 264.5172 15.08844546 89060,6917.866,95.437,540.693,538.77,0.0
53534.0,STARLINK-4488,PAYLOAD,2024-03-30 12:41:17,15.08844779,0.0001466,53.2214,17.3962,98.5155,261.6004,0.00011645,1.566e-05,0.0,0 STARLINK-4488,1 53534U 22101H   24090.52867747  .00001566  00000-0  11645-3 0  9995,2 53534  53.2214  17.3962 0001466  98.5155 261.6004 15.08844779 89118,6917.866,95.437,540.745,538.717,0.0
53534.0,STARLINK-4488,PAYLOAD,2024-03-30 22:13:36,15.08845818,0.0001048,53.2197,15.6135,94.1574,265.9538,0.00024025,3.538e-05,0.0,0 STARLINK-4488,1 53534U 22101H   24090.92611387  .00003538  00000-0  24025-3 0  9993,2 53534  53.2197  15.6135 0001048  94.1574 265.9538 15.08845818 89174,6917.863,95.437,540.453,539.003,0.0
53534.0,STARLINK-4488,PAYLOAD,2024-03-31 04:35:08,15.08843159,0.0001138,53.2193,14.4245,100.7269,259.3851,0.00046227,7.077e-05,0.0,0 STARLINK-4488,1 53534U 22101H   24091.19106985  .00007077  00000-0  46227-3 0  9996,2 53534  53.2193  14.4245 0001138 100.7269 259.3851 15.08843159 89210,6917.871,95.437,540.523,538.948,0.0
53534.0,STARLINK-4488,PAYLOAD,2024-03-31 22:04:24,15.08840388,0.0001173,53.2201,11.1536,99.459,260.6535,-3.1452e-05,-7.88e-06,0.0,0 STARLINK-4488,1 53534U 22101H   24091.91972550 -.00000788  00000-0 -31452-4 0  9994,2 53534  53.2201  11.1536 0001173  99.4590 260.6535 15.08840388 89324,6917.879,95.438,540.556,538.933,0.0
53534.0,STARLINK-4488,PAYLOAD,2024-04-01 04:25:56,15.08840929,0.0001136,53.22,9.9636,86.9223,273.1899,-5.0159e-06,-3.68e-06,0.0,0 STARLINK-4488,1 53534U 22101H   24092.18468524 -.00000368  00000-0 -50159-5 0  9995,2 53534  53.2200   9.9636 0001136  86.9223 273.1899 15.08840929 89369,6917.878,95.437,540.528,538.957,0.0
53534.0,STARLINK-4488,PAYLOAD,2024-04-01 18:44:24,15.08850613,0.0001186,53.2199,7.2887,84.1892,275.9235,2.7086e-05,1.43e-06,0.0,0 STARLINK-4488,1 53534U 22101H   24092.78083627  .00000143  00000-0  27086-4 0  9999,2 53534  53.2199   7.2887 0001186  84.1892 275.9235 15.08850613 89457,6917.848,95.437,540.533,538.892,0.0
53534.0,STARLINK-4488,PAYLOAD,2024-04-02 10:38:14,15.08855802,0.0001145,53.2173,4.3164,75.9384,284.1736,9.7897e-05,1.271e-05,0.0,0 STARLINK-4488,1 53534U 22101H   24093.44322735  .00001271  00000-0  97897-4 0  9999,2 53534  53.2173   4.3164 0001145  75.9384 284.1736 15.08855802 89558,6917.832,95.437,540.489,538.905,0.0
53534.0,STARLINK-4488,PAYLOAD,2024-04-02 16:59:48,15.08843682,0.00014,53.22,3.1321,84.8471,275.2681,0.00017947,2.57e-05,0.0,0 STARLINK-4488,1 53534U 22101H   24093.70819503  .00002570  00000-0  17947-3 0  9992,2 53534  53.2200   3.1321 0001400  84.8471 275.2681 15.08843682 89598,6917.869,95.437,540.703,538.766,0.0
53534.0,STARLINK-4488,PAYLOAD,2024-04-03 04:07:30,15.08840073,0.0001487,53.2191,1.0463,81.824,278.2921,2.5792e-06,-2.47e-06,0.0,0 STARLINK-4488,1 53534U 22101H   24094.17187723 -.00000247  00000-0  25792-5 0  9995,2 53534  53.2191   1.0463 0001487  81.8240 278.2921 15.08840073 89666,6917.88,95.438,540.774,538.716,0.0
53534.0,STARLINK-4488,PAYLOAD,2024-04-03 10:29:02,15.08842246,0.0001438,53.2182,359.8564,81.9757,278.1398,5.2041e-05,5.4e-06,0.0,0 STARLINK-4488,1 53534U 22101H   24094.43683673  .00000540  00000-0  52041-4 0  9990,2 53534  53.2182 359.8564 0001438  81.9757 278.1398 15.08842246 89708,6917.874,95.437,540.733,538.744,0.0
53534.0,STARLINK-4488,PAYLOAD,2024-04-03 16:50:35,15.08842754,0.0001443,53.2185,358.6669,81.9262,278.1894,0.00010883,1.445e-05,0.0,0 STARLINK-4488,1 53534U 22101H   24094.70179631  .00001445  00000-0  10883-3 0  9996,2 53534  53.2185 358.6669 0001443  81.9262 278.1894 15.08842754 89740,6917.872,95.437,540.735,538.739,0.0
53534.0,STARLINK-4488,PAYLOAD,2024-04-04 10:19:49,15.08846986,0.0001604,53.2174,355.3945,82.4315,277.6859,0.00035218,5.322e-05,0.0,0 STARLINK-4488,1 53534U 22101H   24095.43043582  .00005322  00000-0  35218-3 0  9999,2 53534  53.2174 355.3945 0001604  82.4315 277.6859 15.08846986 89851,6917.859,95.437,540.834,538.614,0.0
53534.0,STARLINK-4488,PAYLOAD,2024-04-04 21:27:31,15.08840596,0.000163,53.2175,353.3139,83.2564,276.8613,6.889e-05,8.09e-06,0.0,0 STARLINK-4488,1 53534U 22101H   24095.89411688  .00000809  00000-0  68890-4 0  9993,2 53534  53.2175 353.3139 0001630  83.2564 276.8613 15.08840596 89927,6917.879,95.438,540.871,538.616,0.0
53534.0,STARLINK-4488,PAYLOAD,2024-04-05 10:10:36,15.08846378,0.0001285,53.217,350.9348,89.7405,270.3735,0.00017333,2.472e-05,0.0,0 STARLINK-4488,1 53534U 22101H   24096.42403336  .00002472  00000-0  17333-3 0  9997,2 53534  53.2170 350.9348 0001285  89.7405 270.3735 15.08846378 90007,6917.861,95.437,540.615,538.837,0.0
53534.0,STARLINK-4488,PAYLOAD,2024-04-05 21:18:18,15.08846699,0.0001338,53.2172,348.8539,92.0732,268.0413,0.00016229,2.296e-05,0.0,0 STARLINK-4488,1 53534U 22101H   24096.88771249  .00002296  00000-0  16229-3 0  9995,2 53534  53.2172 348.8539 0001338  92.0732 268.0413 15.08846699 90076,6917.86,95.437,540.651,538.799,0.0
53534.0,STARLINK-4488,PAYLOAD,2024-04-06 10:01:23,15.08839514,0.0001673,53.2176,346.4739,86.6466,273.4718,1.8126e-05,0.0,0.0,0 STARLINK-4488,1 53534U 22101H   24097.41763559  .00000000  00000-0  18126-4 0  9990,2 53534  53.2176 346.4739 0001673  86.6466 273.4718 15.08839514 90156,6917.882,95.438,540.904,538.59,0.0
53534.0,STARLINK-4488,PAYLOAD,2024-04-06 22:44:28,15.08839628,0.0001647,53.2172,344.096,79.3826,280.7352,9.0694e-05,1.156e-05,0.0,0 STARLINK-4488,1 53534U 22101H   24097.94755724  .00001156  00000-0  90694-4 0  9996,2 53534  53.2172 344.0960 0001647  79.3826 280.7352 15.08839628 90232,6917.882,95.438,540.886,538.607,0.0
53534.0,STARLINK-4488,PAYLOAD,2024-04-07 09:52:10,15.08839579,0.0001455,53.2176,342.0137,85.4661,274.6497,0.00010367,1.362e-05,0.0,0 STARLINK-4488,1 53534U 22101H   24098.41123811  .00001362  00000-0  10367-3 0  9992,2 53534  53.2176 342.0137 0001455  85.4661 274.6497 15.08839579 90307,6917.882,95.438,540.753,538.74,0.0
53534.0,STARLINK-4488,PAYLOAD,2024-04-07 20:59:52,15.0884126,0.0001536,53.2185,339.9331,82.0073,278.1093,0.00015231,2.137e-05,0.0,0 STARLINK-4488,1 53534U 22101H   24098.87491893  .00002137  00000-0  15231-3 0  9996,2 53534  53.2185 339.9331 0001536  82.0073 278.1093 15.08841260 90376,6917.877,95.437,540.804,538.679,0.0
53534.0,STARLINK-4488,PAYLOAD,2024-04-07 22:35:16,15.08843312,0.0001499,53.2181,339.6344,86.9042,273.2122,0.00019112,2.755e-05,0.0,0 STARLINK-4488,1 53534U 22101H   24098.94115773  .00002755  00000-0  19112-3 0  9992,2 53534  53.2181 339.6344 0001499  86.9042 273.2122 15.08843312 90380,6917.87,95.437,540.772,538.698,0.0
